OBJECT_NAME,OBJECT_ID,EPOCH,MEAN_MOTION,ECCENTRICITY,INCLINATION,RA_OF_ASC_NODE,ARG_OF_PERICENTER,MEAN_ANOMALY,EPHEMERIS_TYPE,CLASSIFICATION_TYPE,NORAD_CAT_ID,ELEMENT_SET_NO,REV_AT_EPOCH,BSTAR,MEAN_MOTION_DOT,MEAN_MOTION_DDOT
PERSEUS-M1,2014-033AF,2026-05-12T13:49:51.327264,14.95507462,.00128561,97.9627,76.1318,59.7602,300.4889,0,U,40039,999,64531,.11665105E-3,.1233E-4,0
POLYITAN-1,2014-033AJ,2026-05-12T00:16:46.555680,15.31997831,.00053628,98.0977,154.8860,270.7833,89.2792,0,U,40042,999,64805,.37565615E-3,.11526E-3,0
TIGRISAT,2014-033AK,2026-05-12T08:06:54.165024,14.85005476,.00492238,97.7789,283.1846,190.6690,169.3486,0,U,40043,999,64030,.1733105E-3,.1455E-4,0
AEROCUBE 6A,2014-033AM,2026-05-12T08:25:54.540480,14.97703380,.00402417,97.7213,299.6990,133.8203,226.6358,0,U,40045,999,64125,.40612151E-3,.4778E-4,0
AEROCUBE 6B,2014-033AN,2026-05-12T09:18:56.405376,14.99125540,.00378838,97.7172,299.4541,127.1921,233.2770,0,U,40046,999,64139,.33381769E-3,.4058E-4,0
CANX-4,2014-034C,2026-05-12T01:53:45.708000,14.81196018,.00138569,98.3172,6.0596,123.8085,236.4448,0,U,40055,999,63918,.73066924E-4,.512E-5,0
CANX-5,2014-034D,2026-05-12T09:58:29.228448,14.81213592,.00138696,98.3172,6.4501,123.0156,237.2390,0,U,40056,999,63004,.77232732E-4,.545E-5,0
UKUBE-1,2014-037F,2026-05-12T11:04:02.085600,15.12969549,.00004629,98.4247,131.9986,57.3864,302.7409,0,U,40074,999,64315,.28058662E-3,.4871E-4,0
BRITE-PL2 (HEWELIUSZ),2014-049B,2026-05-12T13:17:14.800992,14.94456814,.00130961,97.9057,244.2907,223.7543,136.2640,0,U,40119,999,63612,.76113527E-4,.762E-5,0
AEROCUBE 5C,2015-058B,2026-05-12T02:15:05.702400,14.91244809,.012978,64.7691,14.8570,77.4621,284.0972,0,U,40965,999,36027,.18173961E-3,.195E-4,0
AEROCUBE 7,2015-058C,2026-05-12T01:24:22.662432,14.95439863,.01195515,64.7636,357.9541,76.1742,285.2641,0,U,40966,999,36055,.23301016E-3,.2799E-4,0
FOX-1A (AO-85),2015-058D,2026-05-12T01:30:00.772416,14.90752582,.01289461,64.7768,31.2284,70.7546,290.7464,0,U,40967,999,10818,.19750912E-3,.2101E-4,0
SINOD-D 1,2015-058E,2026-05-12T09:00:15.903648,14.95620097,.01174374,64.7770,11.0369,67.4243,293.9248,0,U,40968,999,11130,.24550388E-3,.2959E-4,0
SNAP-3 ALICE,2015-058G,2026-05-12T09:06:33.109632,15.53340210,.00327676,64.7532,226.9821,30.9340,329.3724,0,U,40970,999,11131,.79509362E-3,.51771E-3,0
LMRST-SAT,2015-058H,2026-05-12T09:52:16.793472,14.90379729,.01307409,64.7775,26.4159,72.6440,288.8922,0,U,40971,999,10822,.19803679E-3,.2095E-4,0
SNAP-3 EDDIE,2015-058J,2026-05-12T12:36:43.088544,15.54498918,.00332374,64.7452,217.4620,34.6047,325.7250,0,U,40972,999,11347,.72698071E-3,.49393E-3,0
PROPCUBE 3,2015-058K,2026-05-12T01:34:33.944160,14.94006584,.01229168,64.7702,5.3715,74.2976,287.1657,0,U,40973,999,10940,.21192943E-3,.2448E-4,0
BISONSAT,2015-058L,2026-05-12T09:44:57.817536,15.15456162,.0078707,64.7595,289.2533,62.7763,298.1353,0,U,40974,999,11019,.38209691E-3,.7647E-4,0
SNAP-3 JIMI,2015-058M,2026-05-12T13:41:24.895392,15.01926667,.01049159,64.7661,332.4296,70.1368,291.1020,0,U,40975,999,10887,.27991836E-3,.3947E-4,0
PROPCUBE 1 (FLORA),2015-058N,2026-05-12T11:13:25.880160,14.89013776,.01295476,64.7758,45.9213,74.8967,286.6433,0,U,40976,999,11094,.19138198E-3,.1937E-4,0
SINOD-D 3,2015-058P,2026-05-12T10:13:14.849184,14.93736293,.01180567,64.7741,27.4661,72.4225,288.9744,0,U,40977,999,10941,.24018133E-3,.2746E-4,0
HORYU-4,2016-012D,2026-05-12T14:44:38.162112,15.77946898,.00055571,30.9893,336.2080,22.0608,338.0287,0,U,41340,999,56516,.6795974E-3,.122061E-2,0
RAVAN,2016-067B,2026-05-12T11:22:46.859808,15.51385309,.00072228,97.9945,18.0161,121.1674,239.0286,0,U,41849,999,52215,.49777122E-3,.29286E-3,0
CELTEE 1,2016-067C,2026-05-12T01:17:30.486048,15.19318741,.00018418,98.0723,356.1585,60.3871,299.7545,0,U,41850,999,52039,.14983376E-3,.3086E-4,0
OPTICUBE 04,2016-067D,2026-05-12T00:28:53.366304,15.09502308,.00144165,98.0738,342.4139,237.4226,122.5610,0,U,41851,999,51971,.76477622E-4,.1156E-4,0
AEROCUBE 8D,2016-067E,2026-05-12T08:59:41.562240,15.23885872,.00019256,98.0737,359.8283,249.6458,110.4571,0,U,41852,999,52061,.19825683E-3,.4704E-4,0
AEROCUBE 8C,2016-067F,2026-05-12T09:43:52.717728,15.24123976,.00054761,98.0607,357.1359,168.8426,191.2932,0,U,41853,999,52061,.18565477E-3,.4433E-4,0
CORVUS BC2,2017-042X,2026-05-12T09:15:57.555648,15.06064122,.00119287,97.4038,295.1419,229.9139,130.1043,0,U,42846,999,48167,.1604767E-3,.2286E-4,0
CORVUS BC1,2017-042Y,2026-05-12T10:49:43.002624,15.06236515,.00112694,97.4070,295.9952,203.3955,156.6762,0,U,42847,999,48171,.15840869E-3,.2267E-4,0
MAKERSAT 0,2017-073D,2026-05-12T04:12:10.429344,15.30547279,.01118347,97.4681,14.4471,41.9670,319.0072,0,U,43016,999,46095,.44166751E-3,.15764E-3,0
