PERSEUS-M1              
1 40039U 14033AF  26132.57628851  .00001233  00000+0  11665-3 0  9993
2 40039  97.9627  76.1318 0012856  59.7602 300.4889 14.95507462645319
POLYITAN-1              
1 40042U 14033AJ  26132.01164995  .00011526  00000+0  37566-3 0  9994
2 40042  98.0977 154.8860 0005362 270.7833  89.2792 15.31997831648057
TIGRISAT                
1 40043U 14033AK  26132.33812691  .00001455  00000+0  17331-3 0  9991
2 40043  97.7789 283.1846 0049223 190.6690 169.3486 14.85005476640303
AEROCUBE 6A             
1 40045U 14033AM  26132.35132570  .00004778  00000+0  40612-3 0  9995
2 40045  97.7213 299.6990 0040241 133.8203 226.6358 14.97703380641251
AEROCUBE 6B             
1 40046U 14033AN  26132.38815284  .00004058  00000+0  33382-3 0  9996
2 40046  97.7172 299.4541 0037883 127.1921 233.2770 14.99125540641392
CANX-4                  
1 40055U 14034C   26132.07900125  .00000512  00000+0  73067-4 0  9998
2 40055  98.3172   6.0596 0013856 123.8085 236.4448 14.81196018639189
CANX-5                  
1 40056U 14034D   26132.41561607  .00000545  00000+0  77233-4 0  9990
2 40056  98.3172   6.4501 0013869 123.0156 237.2390 14.81213592630043
UKUBE-1                 
1 40074U 14037F   26132.46113525  .00004871  00000+0  28059-3 0  9997
2 40074  98.4247 131.9986 0000462  57.3864 302.7409 15.12969549643158
BRITE-PL2 (HEWELIUSZ)   
1 40119U 14049B   26132.55364353  .00000762  00000+0  76114-4 0  9998
2 40119  97.9057 244.2907 0013096 223.7543 136.2640 14.94456814636123
AEROCUBE 5C             
1 40965U 15058B   26132.09381600  .00001950  00000+0  18174-3 0  9992
2 40965  64.7691  14.8570 0129780  77.4621 284.0972 14.91244809360270
AEROCUBE 7              
1 40966U 15058C   26132.05859563  .00002799  00000+0  23301-3 0  9997
2 40966  64.7636 357.9541 0119551  76.1742 285.2641 14.95439863360551
FOX-1A (AO-85)          
1 40967U 15058D   26132.06250894  .00002101  00000+0  19751-3 0  9992
2 40967  64.7768  31.2284 0128946  70.7546 290.7464 14.90752582108188
SINOD-D 1               
1 40968U 15058E   26132.37518407  .00002959  00000+0  24550-3 0  9998
2 40968  64.7770  11.0369 0117437  67.4243 293.9248 14.95620097111305
SNAP-3 ALICE            
1 40970U 15058G   26132.37954988  .00051771  00000+0  79509-3 0  9999
2 40970  64.7532 226.9821 0032767  30.9340 329.3724 15.53340210111314
LMRST-SAT               
1 40971U 15058H   26132.41130548  .00002095  00000+0  19804-3 0  9990
2 40971  64.7775  26.4159 0130740  72.6440 288.8922 14.90379729108227
SNAP-3 EDDIE            
1 40972U 15058J   26132.52549871  .00049393  00000+0  72698-3 0  9998
2 40972  64.7452 217.4620 0033237  34.6047 325.7250 15.54498918113470
PROPCUBE 3              
1 40973U 15058K   26132.06567065  .00002448  00000+0  21193-3 0  9997
2 40973  64.7702   5.3715 0122916  74.2976 287.1657 14.94006584109409
BISONSAT                
1 40974U 15058L   26132.40622474  .00007647  00000+0  38210-3 0  9996
2 40974  64.7595 289.2533 0078707  62.7763 298.1353 15.15456162110193
SNAP-3 JIMI             
1 40975U 15058M   26132.57042703  .00003947  00000+0  27992-3 0  9990
2 40975  64.7661 332.4296 0104915  70.1368 291.1020 15.01926667108873
PROPCUBE 1 (FLORA)      
1 40976U 15058N   26132.46766065  .00001937  00000+0  19138-3 0  9993
2 40976  64.7758  45.9213 0129547  74.8967 286.6433 14.89013776110941
SINOD-D 3               
1 40977U 15058P   26132.42586631  .00002746  00000+0  24018-3 0  9991
2 40977  64.7741  27.4661 0118056  72.4225 288.9744 14.93736293109411
HORYU-4                 
1 41340U 16012D   26132.61433058  .00122061  00000+0  67960-3 0  9998
2 41340  30.9893 336.2080 0005557  22.0608 338.0287 15.77946898565166
RAVAN                   
1 41849U 16067B   26132.47415347  .00029286  00000+0  49777-3 0  9998
2 41849  97.9945  18.0161 0007222 121.1674 239.0286 15.51385309522158
CELTEE 1                
1 41850U 16067C   26132.05382507  .00003086  00000+0  14983-3 0  9996
2 41850  98.0723 356.1585 0001841  60.3871 299.7545 15.19318741520391
OPTICUBE 04             
1 41851U 16067D   26132.02006211  .00001156  00000+0  76478-4 0  9993
2 41851  98.0738 342.4139 0014416 237.4226 122.5610 15.09502308519717
AEROCUBE 8D             
1 41852U 16067E   26132.37478660  .00004704  00000+0  19826-3 0  9998
2 41852  98.0737 359.8283 0001925 249.6458 110.4571 15.23885872520611
AEROCUBE 8C             
1 41853U 16067F   26132.40547127  .00004433  00000+0  18565-3 0  9996
2 41853  98.0607 357.1359 0005476 168.8426 191.2932 15.24123976520614
CORVUS BC2              
1 42846U 17042X   26132.38608282  .00002286  00000+0  16048-3 0  9998
2 42846  97.4038 295.1419 0011928 229.9139 130.1043 15.06064122481679
CORVUS BC1              
1 42847U 17042Y   26132.45119216  .00002267  00000+0  15841-3 0  9990
2 42847  97.4070 295.9952 0011269 203.3955 156.6762 15.06236515481719
MAKERSAT 0              
1 43016U 17073D   26132.17512071  .00015764  00000+0  44167-3 0  9997
2 43016  97.4681  14.4471 0111834  41.9670 319.0072 15.30547279460956
